NORAD_CAT_ID,OBJECT_NAME,OBJECT_TYPE,EPOCH,MEAN_MOTION,ECCENTRICITY,INCLINATION,RA_OF_ASC_NODE,ARG_OF_PERICENTER,MEAN_ANOMALY,BSTAR,MEAN_MOTION_DOT,MEAN_MOTION_DDOT,TLE_LINE0,TLE_LINE1,TLE_LINE2,SEMIMAJOR_AXIS,PERIOD,APOGEE,PERIGEE,DECAYED
52575.0,STARLINK-3920,PAYLOAD,2024-07-29 19:18:38,15.08855056,0.0001187,53.2136,238.2402,86.07,274.0427,0.0001229,1.669e-05,0.0,0 STARLINK-3920,1 52575U 22051AR  24211.80461241  .00001669  00000-0  12290-3 0  9999,2 52575  53.2136 238.2402 0001187  86.0700 274.0427 15.08855056122830,6917.834,95.437,540.521,538.878,0.0
52575.0,STARLINK-3920,PAYLOAD,2024-07-30 08:01:43,15.08850034,0.0001281,53.2151,235.8601,93.5247,266.5892,-3.9462e-06,-3.51e-06,0.0,0 STARLINK-3920,1 52575U 22051AR  24212.33453503 -.00000351  00000-0 -39462-5 0  9991,2 52575  53.2151 235.8601 0001281  93.5247 266.5892 15.08850034122984,6917.85,95.437,540.601,538.829,0.0
52575.0,STARLINK-3920,PAYLOAD,2024-07-30 19:09:25,15.08855389,0.0001317,53.2152,233.7794,90.5457,269.5686,4.5992e-05,4.44e-06,0.0,0 STARLINK-3920,1 52575U 22051AR  24212.79820670  .00000444  00000-0  45992-4 0  9999,2 52575  53.2152 233.7794 0001317  90.5457 269.5686 15.08855389122987,6917.833,95.437,540.609,538.787,0.0
52575.0,STARLINK-3920,PAYLOAD,2024-07-31 07:52:30,15.08851543,0.000138,53.2154,231.4006,92.435,267.68,3.4483e-05,2.61e-06,0.0,0 STARLINK-3920,1 52575U 22051AR  24213.32812560  .00000261  00000-0  34483-4 0  9998,2 52575  53.2154 231.4006 0001380  92.4350 267.6800 15.08851543123068,6917.845,95.437,540.665,538.755,0.0
52575.0,STARLINK-3920,PAYLOAD,2024-08-01 04:32:31,15.08838887,0.0001471,53.2159,227.5328,96.0952,264.0208,1.6042e-05,-3.3e-07,0.0,0 STARLINK-3920,1 52575U 22051AR  24214.18925173 -.00000033  00000-0  16042-4 0  9997,2 52575  53.2159 227.5328 0001471  96.0952 264.0208 15.08838887123266,6917.884,95.438,540.766,538.731,0.0
52575.0,STARLINK-3920,PAYLOAD,2024-08-01 10:54:03,15.08838162,0.0001471,53.2158,226.3439,94.9584,265.1576,7.961e-06,-1.61e-06,0.0,0 STARLINK-3920,1 52575U 22051AR  24214.45421226 -.00000161  00000-0  79610-5 0  9990,2 52575  53.2158 226.3439 0001471  94.9584 265.1576 15.08838162123236,6917.886,95.438,540.769,538.733,0.0
52575.0,STARLINK-3920,PAYLOAD,2024-08-01 20:26:23,15.08834268,0.0001411,53.2147,224.5599,93.3649,266.7504,-2.0652e-05,-6.17e-06,0.0,0 STARLINK-3920,1 52575U 22051AR  24214.85165608 -.00000617  00000-0 -20652-4 0  9991,2 52575  53.2147 224.5599 0001411  93.3649 266.7504 15.08834268123297,6917.898,95.438,540.739,538.787,0.0
52575.0,STARLINK-3920,PAYLOAD,2024-08-02 04:23:19,15.08831769,0.0001405,53.2148,223.073,93.4206,266.6947,-3.8389e-05,-8.99e-06,0.0,0 STARLINK-3920,1 52575U 22051AR  24215.18285978 -.00000899  00000-0 -38389-4 0  9999,2 52575  53.2148 223.0730 0001405  93.4206 266.6947 15.08831769123419,6917.906,95.438,540.743,538.799,0.0
52575.0,STARLINK-3920,PAYLOAD,2024-08-02 07:34:05,15.08832239,0.0001368,53.2151,222.4793,90.5502,269.5646,-3.468e-05,-8.4e-06,0.0,0 STARLINK-3920,1 52575U 22051AR  24215.31533990 -.00000840  00000-0 -34680-4 0  9990,2 52575  53.2151 222.4793 0001368  90.5502 269.5646 15.08832239123365,6917.904,95.438,540.715,538.823,0.0
52575.0,STARLINK-3920,PAYLOAD,2024-08-02 17:06:24,15.08835076,0.0001326,53.2148,220.6947,88.6595,271.455,2.6835e-05,1.39e-06,0.0,0 STARLINK-3920,1 52575U 22051AR  24215.71277813  .00000139  00000-0  26835-4 0  9995,2 52575  53.2148 220.6947 0001326  88.6595 271.4550 15.08835076123421,6917.895,95.438,540.678,538.843,0.0
52575.0,STARLINK-3920,PAYLOAD,2024-08-03 04:14:05,15.08836634,0.0001269,53.2149,218.6129,88.3382,271.7756,7.9849e-05,9.83e-06,0.0,0 STARLINK-3920,1 52575U 22051AR  24216.17645697  .00000983  00000-0  79849-4 0  9995,2 52575  53.2149 218.6129 0001269  88.3382 271.7756 15.08836634123565,6917.891,95.438,540.634,538.878,0.0
52575.0,STARLINK-3920,PAYLOAD,2024-08-03 07:24:51,15.08838753,0.000128,53.2153,218.0189,91.3074,268.8064,0.0001058,1.396e-05,0.0,0 STARLINK-3920,1 52575U 22051AR  24216.30893516  .00001396  00000-0  10580-3 0  9990,2 52575  53.2153 218.0189 0001280  91.3074 268.8064 15.08838753123513,6917.884,95.438,540.635,538.864,0.0
52575.0,STARLINK-3920,PAYLOAD,2024-08-03 16:57:10,15.08838052,0.0001271,53.2152,216.2345,90.8089,269.3049,0.00010087,1.318e-05,0.0,0 STARLINK-3920,1 52575U 22051AR  24216.70637638  .00001318  00000-0  10087-3 0  9991,2 52575  53.2152 216.2345 0001271  90.8089 269.3049 15.08838052123573,6917.886,95.438,540.631,538.872,0.0
52575.0,STARLINK-3920,PAYLOAD,2024-08-04 05:40:15,15.08839806,0.0001286,53.2153,213.8558,91.7062,268.4077,0.00015038,2.106e-05,0.0,0 STARLINK-3920,1 52575U 22051AR  24217.23629534  .00002106  00000-0  15038-3 0  9993,2 52575  53.2153 213.8558 0001286  91.7062 268.4077 15.08839806123726,6917.881,95.438,540.636,538.856,0.0
52575.0,STARLINK-3920,PAYLOAD,2024-08-04 10:26:25,15.08843473,0.0001292,53.2155,212.9636,91.2901,268.8239,0.00014614,2.039e-05,0.0,0 STARLINK-3920,1 52575U 22051AR  24217.43501354  .00002039  00000-0  14614-3 0  9998,2 52575  53.2155 212.9636 0001292  91.2901 268.8239 15.08843473123683,6917.87,95.437,540.629,538.841,0.0
52575.0,STARLINK-3920,PAYLOAD,2024-08-04 16:47:57,15.08841847,0.0001275,53.2153,211.774,89.7671,270.3467,0.00011134,1.485e-05,0.0,0 STARLINK-3920,1 52575U 22051AR  24217.69997577  .00001485  00000-0  11134-3 0  9990,2 52575  53.2153 211.7740 0001275  89.7671 270.3467 15.08841847123720,6917.875,95.437,540.622,538.858,0.0
52575.0,STARLINK-3920,PAYLOAD,2024-08-05 05:31:03,15.08840047,0.0001276,53.2153,209.393,94.6879,265.4259,4.9664e-07,-2.8e-06,0.0,0 STARLINK-3920,1 52575U 22051AR  24218.22989890 -.00000280  00000-0  49664-6 0  9994,2 52575  53.2153 209.3930 0001276  94.6879 265.4259 15.08840047123871,6917.88,95.438,540.628,538.863,0.0
52575.0,STARLINK-3920,PAYLOAD,2024-08-05 16:38:46,15.08829631,0.0001169,53.2152,207.312,93.3479,266.7647,-7.6269e-05,-1.501e-05,0.0,0 STARLINK-3920,1 52575U 22051AR  24218.69358931 -.00001501  00000-0 -76269-4 0  9998,2 52575  53.2152 207.3120 0001169  93.3479 266.7647 15.08829631123941,6917.912,95.438,540.586,538.968,0.0
52575.0,STARLINK-3920,PAYLOAD,2024-08-06 05:21:50,15.08835754,0.0001198,53.2155,204.9316,95.537,264.5759,-4.8432e-06,-3.65e-06,0.0,0 STARLINK-3920,1 52575U 22051AR  24219.22350547 -.00000365  00000-0 -48432-5 0  9992,2 52575  53.2155 204.9316 0001198  95.5370 264.5759 15.08835754124023,6917.893,95.438,540.587,538.93,0.0
52575.0,STARLINK-3920,PAYLOAD,2024-08-06 16:29:32,15.08842061,0.0001261,53.2159,202.8506,92.0006,268.1131,4.285e-05,3.94e-06,0.0,0 STARLINK-3920,1 52575U 22051AR  24219.68718079  .00000394  00000-0  42850-4 0  9997,2 52575  53.2159 202.8506 0001261  92.0006 268.1131 15.08842061124094,6917.874,95.437,540.611,538.867,0.0
52575.0,STARLINK-3920,PAYLOAD,2024-08-08 08:14:10,15.08846964,0.0001568,53.2172,195.414,105.1123,255.0042,0.00015231,2.137e-05,0.0,0 STARLINK-3920,1 52575U 22051AR  24221.34317836  .00002137  00000-0  15231-3 0  9998,2 52575  53.2172 195.4140 0001568 105.1123 255.0042 15.08846964124278,6917.859,95.437,540.809,538.639,0.0
52575.0,STARLINK-3920,PAYLOAD,2024-08-09 04:54:11,15.08846889,0.000103,53.2156,191.5484,92.7212,267.3898,5.7609e-05,6.29e-06,0.0,0 STARLINK-3920,1 52575U 22051AR  24222.20429775  .00000629  00000-0  57609-4 0  9990,2 52575  53.2156 191.5484 0001030  92.7212 267.3898 15.08846889124475,6917.859,95.437,540.437,539.012,0.0
52575.0,STARLINK-3920,PAYLOAD,2024-08-09 20:48:03,15.08838408,0.0001323,53.2159,188.5835,86.0198,274.0945,5.2627e-05,5.5e-06,0.0,0 STARLINK-3920,1 52575U 22051AR  24222.86670456  .00000550  00000-0  52627-4 0  9994,2 52575  53.2159 188.5835 0001323  86.0198 274.0945 15.08838408124575,6917.885,95.438,540.665,538.835,0.0
52575.0,STARLINK-3920,PAYLOAD,2024-08-09 22:23:26,15.0884122,0.0001643,53.2156,188.2818,85.6954,274.4225,-1.5504e-05,-5.35e-06,0.0,0 STARLINK-3920,1 52575U 22051AR  24222.93294512 -.00000535  00000-0 -15504-4 0  9995,2 52575  53.2156 188.2818 0001643  85.6954 274.4225 15.08841220124515,6917.877,95.437,540.878,538.605,0.0
52575.0,STARLINK-3920,PAYLOAD,2024-08-10 04:44:58,15.08844107,0.0001646,53.2162,187.0891,110.5737,249.5432,4.5029e-05,4.29e-06,0.0,0 STARLINK-3920,1 52575U 22051AR  24223.19789857  .00000429  00000-0  45029-4 0  9990,2 52575  53.2162 187.0891 0001646 110.5737 249.5432 15.08844107124622,6917.868,95.437,540.872,538.594,0.0
52575.0,STARLINK-3920,PAYLOAD,2024-08-11 14:08:04,15.08843933,0.0001404,53.2168,180.8515,92.8066,267.3087,0.00013205,1.814e-05,0.0,0 STARLINK-3920,1 52575U 22051AR  24224.58893868  .00001814  00000-0  13205-3 0  9991,2 52575  53.2168 180.8515 0001404  92.8066 267.3087 15.08843933124834,6917.868,95.437,540.705,538.762,0.0
52575.0,STARLINK-3920,PAYLOAD,2024-08-12 13:58:50,15.08855256,0.0001427,53.2169,176.3874,108.7297,251.385,0.00017729,2.536e-05,0.0,0 STARLINK-3920,1 52575U 22051AR  24225.58252993  .00002536  00000-0  17729-3 0  9997,2 52575  53.2169 176.3874 0001427 108.7297 251.3850 15.08855256124912,6917.834,95.437,540.686,538.712,0.0
52575.0,STARLINK-3920,PAYLOAD,2024-08-13 04:17:21,15.08799616,0.0001413,53.2156,173.7119,83.9223,276.193,-0.00068412,-0.00011147,0.0,0 STARLINK-3920,1 52575U 22051AR  24226.17872172 -.00011147  00000-0 -68412-3 0  9995,2 52575  53.2156 173.7119 0001413  83.9223 276.1930 15.08799616125078,6918.004,95.44,540.846,538.891,0.0
52575.0,STARLINK-3920,PAYLOAD,2024-08-13 13:49:41,15.08803374,0.0001474,53.2161,171.9296,82.7049,277.4111,-0.00041017,-6.803e-05,0.0,0 STARLINK-3920,1 52575U 22051AR  24226.57616927 -.00006803  00000-0 -41017-3 0  9998,2 52575  53.2161 171.9296 0001474  82.7049 277.4111 15.08803374125061,6917.992,95.44,540.877,538.838,0.0
52575.0,STARLINK-3920,PAYLOAD,2024-08-13 20:11:14,15.08800394,0.0001416,53.2162,170.7386,73.2794,286.8353,-0.00024606,-4.198e-05,0.0,0 STARLINK-3920,1 52575U 22051AR  24226.84113551 -.00004198  00000-0 -24606-3 0  9993,2 52575  53.2162 170.7386 0001416  73.2794 286.8353 15.08800394125170,6918.001,95.44,540.846,538.887,0.0
